C/2021 L3 (Borisov),h,02/13.5905/2022,78.5801,344.9686,91.5899,1.001960,8.457853,2000,6.0,4.0
# From MPEC 2022-L66
P/2021 L4 (PANSTARRS),e,16.9608,243.2217,234.5475,3.165200,0.1750259,0.11852353,179.8521,06/27.0/2022,2000,g 13.5,4.0
# From MPEC 2021-P47
P/2021 N1 (ZTF),e,11.5043,301.1676,21.2051,2.977488,0.1918356,0.67669267,73.9455,06/27.0/2022,2000,g 19.0,4.0
# From MPEC 2022-GA9
P/2021 N2 (Fuls),e,13.0623,221.7414,177.3706,6.933636,0.0539837,0.45241527,12.1759,06/27.0/2022,2000,g  9.5,4.0
# From MPEC 2022-L66
C/2021 N3 (PANSTARRS),e,26.7448,337.4942,304.7294,158.5730,0.0004936,0.96397192,0.3338,06/27.0/2022,2000,g  8.5,4.0
# From MPEC 2022-A21
C/2021 O1 (Nishimura),e,27.5792,41.6093,74.4400,2488,0.0000079,0.99968385,0.0000,08/13.9331/2021,2000,g 10.5,4.0
# From MPEC 2022-L66
C/2021 O3 (PANSTARRS),h,04/21.0462/2022,56.7939,189.0186,299.9876,1.000103,0.287342,2000,10.5,4.0
# From MPEC 2022-CN4
C/2021 P1 (PANSTARRS),e,51.6364,359.6761,40.4292,3129,0.0000056,0.99860208,0.0000,06/02.1791/2022,2000,g 11.0,4.0
# From MPEC 2022-C56
C/2021 P2 (PANSTARRS),e,150.0582,32.0618,76.6213,3917,0.0000040,0.99870583,0.0000,01/22.2387/2023,2000,g  9.0,4.0
# From MPEC 2021-W31
P/2021 P3 (PANSTARRS),e,27.1616,358.2397,334.1224,4.414400,0.1062665,0.33950771,41.7121,06/27.0/2022,2000,g 14.0,4.0
# From MPEC 2022-M21
C/2021 P4 (ATLAS),e,56.3109,348.0944,175.8203,321.5563,0.0001709,0.99663992,0.0000,07/30.3691/2022,2000,g  9.5,4.0
# From MPEC 2022-GA9
C/2021 Q3 (ATLAS),e,77.7748,307.9047,114.0950,75.12680,0.0015136,0.93072264,0.2299,06/27.0/2022,2000,g  8.0,4.0
# From MPEC 2022-GA9
C/2021 Q4 (Fuls),h,06/09.6218/2023,71.4725,183.3344,146.9430,1.003325,7.565416,2000,6.0,4.0
# From MPEC 2022-C56
P/2021 Q5 (ATLAS),e,10.7348,239.7650,180.9029,3.286103,0.1654559,0.62435265,49.7277,06/27.0/2022,2000,g 15.0,4.0
# From MPEC 2022-C56
C/2021 Q6 (PANSTARRS),e,161.8473,133.5353,140.8560,7915,0.0000014,0.99889922,0.0000,03/22.3040/2024,2000,g  6.0,4.0
# From MPEC 2021-W31
P/2021 R1 (PANSTARRS),e,5.5202,143.3935,220.3517,8.384330,0.0405977,0.41724992,7.7661,06/27.0/2022,2000,g 11.0,4.0
# From MPEC 2022-L66
C/2021 R2 (PANSTARRS),e,134.4787,16.2917,32.3560,2641,0.0000073,0.99723149,0.0000,12/25.7236/2021,2000,g  7.5,4.0
# From MPEC 2021-W31
P/2021 R3 (PANSTARRS),e,19.9265,304.2177,2.8644,3.775049,0.1343755,0.33137672,53.2812,06/27.0/2022,2000,g 16.0,4.0
# From MPEC 2021-W31
P/2021 R4 (Wierzchos),e,21.0399,321.2563,56.6420,5.618223,0.0740126,0.58595808,18.9499,06/27.0/2022,2000,g 16.0,4.0
# From MPEC 2022-CN4
P/2021 R5 (Rankin),e,7.8546,219.9595,167.3818,4.793801,0.0939040,0.30686405,15.5689,06/27.0/2022,2000,g 12.0,4.0
# From MPEC 2021-W31
P/2021 R6 (Groeller),e,34.9270,176.1140,220.7420,6.274183,0.0627145,0.59320751,14.9305,06/27.0/2022,2000,g 14.5,4.0
# From MPEC 2022-L66
C/2021 R7 (PANSTARRS),e,158.8511,170.1435,140.2428,1276,0.0000216,0.99557487,0.0000,04/16.6527/2021,2000,g 10.5,4.0
# From MPEC 2021-Y10
P/2021 R8 (Sheppard),e,2.2034,167.0282,190.7690,3.016950,0.1880840,0.29362749,49.3837,06/27.0/2022,2000,g 18.5,4.0
# From MPEC 2022-L66
C/2021 S1 (ATLAS),h,02/28.8605/2022,52.0858,299.8756,148.1791,1.001204,6.119200,2000,7.0,4.0
# From MPEC 2022-J42
C/2021 S3 (PANSTARRS),e,58.5373,215.6322,6.9014,6131,0.0000021,0.99978484,0.0000,02/14.8174/2024,2000,g  5.5,4.0
# From MPEC 2022-ED3
C/2021 S4 (Tsuchinshan),e,17.4775,5.4944,72.7421,163.6175,0.0004709,0.95909831,359.7396,06/27.0/2022,2000,g  6.5,4.0
# From MPEC 2022-GA9
C/2021 T1 (Lemmon),e,140.3513,56.8344,51.5176,1267,0.0000218,0.99758696,0.0000,10/14.0576/2021,2000,g 12.5,4.0
# From MPEC 2022-ED3
C/2021 T2 (Fuls),h,06/07.8916/2022,117.5301,223.2323,263.5922,1.000201,1.247700,2000,12.0,4.0
# From MPEC 2022-ED3
C/2021 T4 (Lemmon),e,160.7549,257.7953,329.7836,16449,0.0000005,0.99990992,0.0000,07/31.5138/2023,2000,g  7.5,4.0
# From MPEC 2022-ED3
P/2021 U1 (Wierzchos),e,30.5586,246.7877,145.0604,8.514262,0.0396720,0.71281385,10.6710,06/27.0/2022,2000,g 14.5,4.0
# From MPEC 2022-L66
P/2021 U3 (Attard-Maury),e,69.9600,75.1106,335.2159,4.191947,0.1148366,0.54988373,28.1502,06/27.0/2022,2000,g 15.5,4.0
# From MPEC 2021-W31
C/2021 U4 (Leonard),e,152.8771,241.8132,237.2774,44.68967,0.0032991,0.96000502,0.6172,06/27.0/2022,2000,g 17.0,4.0
# From MPEC 2022-M21
C/2021 U5 (Catalina),e,39.0505,182.7550,321.4654,217.1140,0.0003081,0.98911534,0.0000,01/26.5983/2022,2000,g 13.0,4.0
# From MPEC 2022-CN4
C/2021 V1 (Rankin),e,71.4527,207.6528,195.1133,643.3143,0.0000604,0.99531576,0.0000,04/30.3949/2022,2000,g 13.0,4.0
# From MPEC 2022-HC2
P/2021 V2 (Fuls),e,12.6946,232.2894,259.8294,9.045424,0.0362294,0.61343986,352.4476,06/27.0/2022,2000,g 10.0,4.0
# From MPEC 2022-J42
C/2021 X1 (Maury-Attard),e,140.1213,10.5835,334.6109,164109,0.0000000,0.99998029,0.0000,05/27.4336/2023,2000,g  7.0,4.0
# From MPEC 2022-ED3
A/2021 X2,h,07/08.1602/2022,137.1439,228.7983,193.2854,1.001310,2.994510,2000,16.0,2.0
# From MPEC 2022-L66
C/2021 Y1 (ATLAS),h,04/30.7076/2023,77.1855,244.7704,245.8074,1.000721,2.032674,2000,7.0,4.0
# From MPEC 2022-ED3
C/2022 A1 (Sarneczky),e,116.5213,285.5231,201.1969,819.3516,0.0000420,0.99847089,0.0000,01/31.1528/2022,2000,g 18.0,4.0
# From MPEC 2022-M21
C/2022 A2 (PANSTARRS),h,02/18.2482/2023,108.1486,171.5801,88.3608,1.000559,1.735322,2000,9.5,4.0
# From MPEC 2022-K19
C/2022 A3 (Lemmon-ATLAS),e,88.3572,325.4832,234.8537,987.5860,0.0000318,0.99625041,0.0000,09/28.8269/2023,2000,g  8.0,4.0
# From MPEC 2022-K19
P/2022 B1 (Wierzchos),e,10.9908,148.8500,325.4785,5.464834,0.0771505,0.65293109,9.3865,06/27.0/2022,2000,g 16.5,4.0
# From MPEC 2022-K19
A/2022 B3,e,132.0563,286.1858,150.6959,928.0940,0.0000349,0.99601513,0.0000,01/17.6362/2022,2000,g 16.5,2.0
# From MPEC 2022-GA9
C/2022 B4 (Bok),e,20.0442,340.6614,152.9510,387.2385,0.0001293,0.99643733,0.0000,01/29.8914/2022,2000,g 21.0,4.0
# From MPEC 2022-H04
P/2022 C1 (PANSTARRS),e,4.7620,113.1461,9.3630,7.216794,0.0508379,0.44775513,11.9218,06/27.0/2022,2000,g 12.0,4.0
# From MPEC 2022-M21
P/2022 C2 (PANSTARRS),e,9.9799,135.2745,89.2988,6.047668,0.0662708,0.44267528,357.3098,06/27.0/2022,2000,g 12.5,4.0
# From MPEC 2022-L66
P/2022 C3 (PANSTARRS),e,12.8158,139.0591,93.9509,9.651946,0.0328686,0.54677882,359.8578,06/27.0/2022,2000,g 11.5,4.0
# From MPEC 2022-K19
P/2022 D1 (PANSTARRS),e,44.0666,47.9621,88.7057,7.400961,0.0489522,0.54703161,14.8304,06/27.0/2022,2000,g 12.5,4.0
# From MPEC 2022-K19
C/2022 D2 (Kowalski),e,22.6545,312.4690,177.7893,366.8108,0.0001403,0.99576038,0.0000,03/27.5731/2022,2000,g 17.0,4.0
# From MPEC 2022-L66
P/2022 E1 (Christensen),e,19.0036,113.3485,115.0951,3.782068,0.1340017,0.22123218,2.1953,06/27.0/2022,2000,g 13.5,4.0
# From MPEC 2022-M21
C/2022 E2 (ATLAS),h,09/13.7445/2024,137.1457,125.3510,41.6664,1.001547,3.666558,2000,5.0,4.0
# From MPEC 2022-M21
C/2022 E3 (ZTF),h,01/12.7921/2023,109.1682,302.5535,145.8155,1.000242,1.112265,2000,7.5,4.0
# From MPEC 2022-L66
C/2022 F1 (ATLAS),h,08/05.3161/2022,57.9710,350.6530,278.2859,1.000231,5.973890,2000,7.0,4.0
# From MPEC 2022-L66
C/2022 F2 (NEOWISE),e,97.2936,58.6948,200.6292,23.92571,0.0084218,0.93375288,0.8046,06/27.0/2022,2000,g 14.5,4.0
# From MPEC 2022-J76
C/2022 H1 (PANSTARRS),e,49.8922,6.3818,246.2588,1125,0.0000261,0.99316324,0.0000,01/19.0262/2024,2000,g  6.0,4.0
# From MPEC 2022-M21
C/2022 J1 (Maury-Attard),e,105.9342,280.7242,305.6768,48.07128,0.0029572,0.96662323,0.3783,06/27.0/2022,2000,g 14.9,4.0
# From MPEC 2022-L66
A/2022 J2,e,149.0855,252.5198,133.2730,83.27563,0.0012970,0.97811819,0.0000,10/27.3387/2022,2000,g 17.0,2.0
# From MPEC 2022-M21
C/2022 K1 (Leonard),e,41.9820,136.2820,142.7789,1178,0.0000244,0.99661560,0.0000,12/18.0037/2021,2000,g 11.0,4.0
# From MPEC 2022-L97
C/2022 L1 (Catalina),h,09/27.4850/2022,123.5507,300.0710,59.4774,1.013843,1.595839,2000,15.8,4.0
# From MPEC 2022-M21
C/2022 L2 (ATLAS),h,03/10.5023/2024,129.3564,38.7776,198.2650,1.016780,2.749803,2000,6.5,4.0
# From  98, 1083
1P/Halley,e,162.2033,59.1475,112.0715,17.87167,0.0130454,0.96643063,173.1876,06/27.0/2022,2000,g  4.0,6.0
# From MPEC 2022-K19
2P/Encke,e,11.4957,334.3058,187.0197,2.219564,0.2980591,0.84846584,216.4641,06/27.0/2022,2000,g 11.5,6.0
# From MPEC 2022-L66
4P/Faye,e,8.0086,192.9264,207.0199,3.825021,0.1317508,0.57673887,38.3565,06/27.0/2022,2000,g  8.0,6.0
# From MPEC 2022-L66
6P/d'Arrest,e,19.5122,138.9336,178.0846,3.497002,0.1507163,0.61265132,42.5407,06/27.0/2022,2000,g  7.5,16.0
# From MPEC 2021-Y10
7P/Pons-Winnecke,e,22.3657,93.3448,172.5702,3.411747,0.1564008,0.63848947,61.9235,06/27.0/2022,2000,g 10.0,6.0
# From MPEC 2022-HC2
8P/Tuttle,e,54.9151,270.1987,207.4823,5.705001,0.0723303,0.82017629,21.9359,06/27.0/2022,2000,g  8.0,8.0
# From MPEC 2022-M21
9P/Tempel,e,10.4698,68.7128,179.3618,3.146305,0.1766049,0.50917418,20.1388,06/27.0/2022,2000,g  5.5,10.0
# From MPEC 2022-HC2
10P/Tempel,e,12.0386,117.8115,195.5095,3.061022,0.1840367,0.53838235,84.6163,06/27.0/2022,2000,g  5.0,10.0
# From MPEC 2022-K19
11P/Tempel-Swift-LINEAR,e,14.4241,238.8859,167.9713,3.283784,0.1656312,0.57730320,95.6714,06/27.0/2022,2000,g 17.0,4.0
# From MPEC 2022-M21
12P/Pons-Brooks,e,74.1671,255.8147,198.9810,17.16791,0.0138557,0.95447105,350.7966,06/27.0/2022,2000,g  5.0,6.0
# From  27, 604
13P/Olbers,e,44.6170,85.9422,64.3915,16.77746,0.0143422,0.92995127,349.4574,06/27.0/2022,2000,g  5.0,6.0
# From MPEC 2021-F20
14P/Wolf,e,27.9238,202.0421,159.0691,4.258199,0.1121670,0.35718882,186.8844,06/27.0/2022,2000,g  5.5,12.0
# From MPEC 2022-ED3
15P/Finlay,e,6.7980,13.7092,347.8488,3.507070,0.1500678,0.71706871,52.3000,06/27.0/2022,2000,g 12.0,4.0
# From MPEC 2022-C56
16P/Brooks,e,3.0117,138.8697,245.2164,3.657724,0.1408925,0.48641668,61.2385,06/27.0/2022,2000,g  7.5,10.0
# From MPEC 2022-ED3
17P/Holmes,e,19.0314,326.6231,24.5214,3.636711,0.1421153,0.42761938,69.9311,06/27.0/2022,2000,g 10.0,6.0
# From MPEC 2022-M21
19P/Borrelly,e,29.3041,74.2449,351.9202,3.605509,0.1439641,0.63769939,20.8994,06/27.0/2022,2000,g  4.5,10.0
# From MPEC 2021-F20
